STARLINK-11698 [DTC]    
1 64325U 25124J   26189.92803267  .00162771  00000+0  12439-2 0  9991
2 64325  42.9995  18.2888 0002038 334.2052  25.8713 15.70904067 61908
STARLINK-11674 [DTC]    
1 64327U 25124L   26190.74308154  .00107654  00000+0  82981-3 0  9999
2 64327  43.0010  13.2084 0002337 264.3562  95.7039 15.70891019 62038
STARLINK-11707 [DTC]    
1 64328U 25124M   26189.93242214  .00129462  00000+0  99326-3 0  9995
2 64328  43.0025  18.3210 0002536 284.6085  75.4501 15.70922858 61908
STARLINK-11734 [DTC]    
1 64329U 25124N   26190.54171093  .00143825  00000+0  11043-2 0  9999
2 64329  43.0011  14.2736 0002711 315.8186  44.2465 15.70854109 62004
STARLINK-34252          
1 64330U 25124P   26190.27737138  .00010977  00000+0  40759-3 0  9997
2 64330  43.0012 155.2275 0001228 274.5634  85.5077 15.27600049 60371
STARLINK-34050          
1 64331U 25124Q   26190.26709164  .00011173  00000+0  41466-3 0  9990
2 64331  42.9947 155.1445 0001143 281.6192  78.4531 15.27601081 61430
STARLINK-33782          
1 64332U 25124R   26190.25553372  .00013690  00000+0  50612-3 0  9997
2 64332  43.0010 155.0500 0002135 263.6567  96.4041 15.27576855 60371
STARLINK-34207          
1 64333U 25124S   26190.27349586  .00018709  00000+0  68766-3 0  9995
2 64333  43.0002 155.1936 0001777 263.8740  96.1909 15.27580224 60378
STARLINK-34260          
1 64334U 25124T   26190.73893272  .00007744  00000+0  29048-3 0  9990
2 64334  43.0016 152.6674 0001310 263.8624  96.2079 15.27598700 60444
STARLINK-33855          
1 64335U 25124U   26190.25165676  .00011593  00000+0  42990-3 0  9996
2 64335  42.9995 155.0199 0001509 267.6238  92.4441 15.27597056 60377
STARLINK-34223          
1 64336U 25124V   26190.24056290  .00017663  00000+0  64871-3 0  9993
2 64336  42.9993 151.4766 0001590 275.5279  84.5391 15.27637223 60411
STARLINK-34216          
1 64337U 25124W   26190.23753761  .00011448  00000+0  42459-3 0  9993
2 64337  42.9984 154.9203 0001277 294.3428  65.7290 15.27603570 60375
STARLINK-34218          
1 64338U 25124X   26190.25215094  .00010594  00000+0  39363-3 0  9999
2 64338  42.9987 151.5694 0001524 286.1059  73.9625 15.27607115 60417
STARLINK-34017          
1 64339U 25124Y   26190.26323889  .00010706  00000+0  39778-3 0  9998
2 64339  42.9961 155.1085 0001101 282.6420  77.4309 15.27598145 60373
STARLINK-33977          
1 64344U 25126A   26190.12664853  .00005473  00000+0  46596-3 0  9991
2 64344  70.0008  88.2084 0002649 261.8706  98.2153 14.98344012 60087
STARLINK-34426          
1 64345U 25126B   26189.92200466 -.00003286  00000+0 -26771-3 0  9999
2 64345  70.0002  88.6929 0003086 255.8685 104.2131 14.98336838 58841
STARLINK-34437          
1 64346U 25126C   26189.95123248  .00010858  00000+0  91555-3 0  9998
2 64346  70.0021  88.7943 0002753 305.6927  54.3976 14.98366587 58849
STARLINK-34407          
1 64347U 25126D   26189.95559023  .00004122  00000+0  35299-3 0  9993
2 64347  70.0008  88.8080 0002939 269.1227  90.9595 14.98336242 58849
STARLINK-34274          
1 64348U 25126E   26190.16819973 -.00003676  00000+0 -30038-3 0  9993
2 64348  70.0005  88.3520 0003025 270.4765  89.6048 14.98336816 58878
STARLINK-34301          
1 64349U 25126F   26190.12647911  .00005369  00000+0  45725-3 0  9999
2 64349  70.0007  88.2027 0002766 272.2183  87.8659 14.98346386 58878
STARLINK-34425          
1 64350U 25126G   26190.14733908  .00004845  00000+0  41328-3 0  9998
2 64350  70.0006  88.2744 0003014 270.0695  90.0119 14.98353895 58876
STARLINK-34389          
1 64351U 25126H   26189.93469943  .00003269  00000+0  28156-3 0  9992
2 64351  70.0005  88.7328 0003062 270.6663  89.4146 14.98344809 58847
STARLINK-34385          
1 64352U 25126J   26190.15987332  .00005177  00000+0  44121-3 0  9996
2 64352  70.0010  88.3213 0002826 268.3852  91.6983 14.98345149 58879
STARLINK-34431          
1 64353U 25126K   26190.12245235 -.00004015  00000+0 -32886-3 0  9990
2 64353  70.0005  88.1918 0002321 270.7427  89.3466 14.98332376 58877
STARLINK-34473          
1 64354U 25126L   26190.13482864  .00005713  00000+0  48599-3 0  9995
2 64354  70.0003  88.2332 0003255 262.4106  97.6683 14.98344170 58874
STARLINK-34270          
1 64355U 25126M   26189.93872498  .00005286  00000+0  45031-3 0  9991
2 64355  70.0002  88.7515 0003131 271.4434  88.6367 14.98342836 60047
STARLINK-34397          
1 64356U 25126N   26190.69812700  .00004563  00000+0  38979-3 0  9997
2 64356  70.0006  86.9861 0003222 263.0184  97.0609 14.98344081 58950
STARLINK-34454          
1 64357U 25126P   26190.16838755  .00005051  00000+0  43065-3 0  9993
2 64357  70.0022  88.3477 0002311 276.5041  83.5855 14.98342320 58875
STARLINK-34436          
1 64358U 25126Q   26190.11412299  .00006829  00000+0  57939-3 0  9999
2 64358  70.0003  88.1544 0002555 269.8909  90.1957 14.98344445 58873
STARLINK-34291          
1 64359U 25126R   26190.13081871  .00005715  00000+0  48613-3 0  9992
2 64359  70.0003  88.2118 0002562 261.5081  98.5788 14.98346894 58874
