OBJECT_NAME,OBJECT_ID,EPOCH,MEAN_MOTION,ECCENTRICITY,INCLINATION,RA_OF_ASC_NODE,ARG_OF_PERICENTER,MEAN_ANOMALY,EPHEMERIS_TYPE,CLASSIFICATION_TYPE,NORAD_CAT_ID,ELEMENT_SET_NO,REV_AT_EPOCH,BSTAR,MEAN_MOTION_DOT,MEAN_MOTION_DDOT
STARLINK-11698 [DTC],2025-124J,2026-07-08T22:16:22.022688,15.70904067,.00020388,42.9995,18.2888,334.2052,25.8713,0,U,64325,999,6190,.12439445E-2,.162771E-2,0
STARLINK-11674 [DTC],2025-124L,2026-07-09T17:50:02.245056,15.70891019,.0002337,43.0010,13.2084,264.3562,95.7039,0,U,64327,999,6203,.82981E-3,.107654E-2,0
STARLINK-11707 [DTC],2025-124M,2026-07-08T22:22:41.272896,15.70922858,.00025367,43.0025,18.3210,284.6085,75.4501,0,U,64328,999,6190,.99325601E-3,.129462E-2,0
STARLINK-11734 [DTC],2025-124N,2026-07-09T13:00:03.824352,15.70854109,.0002711,43.0011,14.2736,315.8186,44.2465,0,U,64329,999,6200,.11043E-2,.143825E-2,0
STARLINK-34252,2025-124P,2026-07-09T06:39:24.887232,15.27600049,.00012284,43.0012,155.2275,274.5634,85.5077,0,U,64330,999,6037,.40759159E-3,.10977E-3,0
STARLINK-34050,2025-124Q,2026-07-09T06:24:36.717696,15.27601081,.00011431,42.9947,155.1445,281.6192,78.4531,0,U,64331,999,6143,.4146615E-3,.11173E-3,0
STARLINK-33782,2025-124R,2026-07-09T06:07:58.113408,15.27576855,.00021356,43.0010,155.0500,263.6567,96.4041,0,U,64332,999,6037,.50612454E-3,.1369E-3,0
STARLINK-34207,2025-124S,2026-07-09T06:33:50.042304,15.27580224,.00017775,43.0002,155.1936,263.8740,96.1909,0,U,64333,999,6037,.68766406E-3,.18709E-3,0
STARLINK-34260,2025-124T,2026-07-09T17:44:03.787008,15.27598700,.000131,43.0016,152.6674,263.8624,96.2079,0,U,64334,999,6044,.29048E-3,.7744E-4,0
STARLINK-33855,2025-124U,2026-07-09T06:02:23.144064,15.27597056,.0001509,42.9995,155.0199,267.6238,92.4441,0,U,64335,999,6037,.42989938E-3,.11593E-3,0
STARLINK-34223,2025-124V,2026-07-09T05:46:24.634560,15.27637223,.00015909,42.9993,151.4766,275.5279,84.5391,0,U,64336,999,6041,.64870833E-3,.17663E-3,0
STARLINK-34216,2025-124W,2026-07-09T05:42:03.249504,15.27603570,.00012771,42.9984,154.9203,294.3428,65.7290,0,U,64337,999,6037,.42458802E-3,.11448E-3,0
STARLINK-34218,2025-124X,2026-07-09T06:03:05.841216,15.27607115,.00015247,42.9987,151.5694,286.1059,73.9625,0,U,64338,999,6041,.39362757E-3,.10594E-3,0
STARLINK-34017,2025-124Y,2026-07-09T06:19:03.840096,15.27598145,.00011011,42.9961,155.1085,282.6420,77.4309,0,U,64339,999,6037,.39778153E-3,.10706E-3,0
STARLINK-33977,2025-126A,2026-07-09T03:02:22.432992,14.98344012,.00026494,70.0008,88.2084,261.8706,98.2153,0,U,64344,999,6008,.46595743E-3,.5473E-4,0
STARLINK-34426,2025-126B,2026-07-08T22:07:41.202624,14.98336838,.00030862,70.0002,88.6929,255.8685,104.2131,0,U,64345,999,5884,-.26770758E-3,-.3286E-4,0
STARLINK-34437,2025-126C,2026-07-08T22:49:46.486272,14.98366587,.0002753,70.0021,88.7943,305.6927,54.3976,0,U,64346,999,5884,.91554936E-3,.10858E-3,0
STARLINK-34407,2025-126D,2026-07-08T22:56:02.995872,14.98336242,.00029397,70.0008,88.8080,269.1227,90.9595,0,U,64347,999,5884,.35299025E-3,.4122E-4,0
STARLINK-34274,2025-126E,2026-07-09T04:02:12.456672,14.98336816,.00030254,70.0005,88.3520,270.4765,89.6048,0,U,64348,999,5887,-.30038256E-3,-.3676E-4,0
STARLINK-34301,2025-126F,2026-07-09T03:02:07.795104,14.98346386,.00027668,70.0007,88.2027,272.2183,87.8659,0,U,64349,999,5887,.457249E-3,.5369E-4,0
STARLINK-34425,2025-126G,2026-07-09T03:32:10.096512,14.98353895,.00030142,70.0006,88.2744,270.0695,90.0119,0,U,64350,999,5887,.41327984E-3,.4845E-4,0
STARLINK-34389,2025-126H,2026-07-08T22:25:58.030752,14.98344809,.00030629,70.0005,88.7328,270.6663,89.4146,0,U,64351,999,5884,.28156126E-3,.3269E-4,0
STARLINK-34385,2025-126J,2026-07-09T03:50:13.054848,14.98345149,.00028263,70.0010,88.3213,268.3852,91.6983,0,U,64352,999,5887,.44120936E-3,.5177E-4,0
STARLINK-34431,2025-126K,2026-07-09T02:56:19.883040,14.98332376,.00023217,70.0005,88.1918,270.7427,89.3466,0,U,64353,999,5887,-.32885541E-3,-.4015E-4,0
STARLINK-34473,2025-126L,2026-07-09T03:14:09.194496,14.98344170,.00032556,70.0003,88.2332,262.4106,97.6683,0,U,64354,999,5887,.48599343E-3,.5713E-4,0
STARLINK-34270,2025-126M,2026-07-08T22:31:45.838272,14.98342836,.00031313,70.0002,88.7515,271.4434,88.6367,0,U,64355,999,6004,.45030877E-3,.5286E-4,0
STARLINK-34397,2025-126N,2026-07-09T16:45:18.172800,14.98344081,.0003222,70.0006,86.9861,263.0184,97.0609,0,U,64356,999,5895,.38979E-3,.4563E-4,0
STARLINK-34454,2025-126P,2026-07-09T04:02:28.684320,14.98342320,.00023113,70.0022,88.3477,276.5041,83.5855,0,U,64357,999,5887,.43065398E-3,.5051E-4,0
STARLINK-34436,2025-126Q,2026-07-09T02:44:20.226336,14.98344445,.00025553,70.0003,88.1544,269.8909,90.1957,0,U,64358,999,5887,.57939465E-3,.6829E-4,0
STARLINK-34291,2025-126R,2026-07-09T03:08:22.736544,14.98346894,.00025622,70.0003,88.2118,261.5081,98.5788,0,U,64359,999,5887,.48612753E-3,.5715E-4,0
